NORAD_CAT_ID,OBJECT_NAME,OBJECT_TYPE,EPOCH,MEAN_MOTION,ECCENTRICITY,INCLINATION,RA_OF_ASC_NODE,ARG_OF_PERICENTER,MEAN_ANOMALY,BSTAR,MEAN_MOTION_DOT,MEAN_MOTION_DDOT,TLE_LINE0,TLE_LINE1,TLE_LINE2,SEMIMAJOR_AXIS,PERIOD,APOGEE,PERIGEE,DECAYED
50808.0,STARLINK-3355,PAYLOAD,2024-08-05 19:33:37,15.08848798,0.0001443,53.2141,246.7717,84.5154,275.6003,0.00041705,6.357e-05,0.0,0 STARLINK-3355,1 50808U 22001F   24218.81501199  .00006357  00000-0  41705-3 0  9998,2 50808  53.2141 246.7717 0001443  84.5154 275.6003 15.08848798144103,6917.853,95.437,540.717,538.72,0.0
50808.0,STARLINK-3355,PAYLOAD,2024-08-06 05:05:56,15.08830883,0.0001473,53.2134,244.9846,102.386,257.7297,-0.00013244,-2.395e-05,0.0,0 STARLINK-3355,1 50808U 22001F   24219.21245730 -.00002395  00000-0 -13244-3 0  9996,2 50808  53.2134 244.9846 0001473 102.3860 257.7297 15.08830883144162,6917.908,95.438,540.792,538.754,0.0
50808.0,STARLINK-3355,PAYLOAD,2024-08-06 11:27:29,15.08825564,0.0001483,53.2137,243.7957,101.6713,258.4445,-1.121e-05,-4.66e-06,0.0,0 STARLINK-3355,1 50808U 22001F   24219.47742092 -.00000466  00000-0 -11210-4 0  9996,2 50808  53.2137 243.7957 0001483 101.6713 258.4445 15.08825564142953,6917.925,95.438,540.815,538.764,0.0
50808.0,STARLINK-3355,PAYLOAD,2024-08-07 06:32:07,15.08839148,0.0001416,53.2142,240.2284,95.54,264.5754,0.00060862,9.411e-05,0.0,0 STARLINK-3355,1 50808U 22001F   24220.27230586  .00009411  00000-0  60862-3 0  9999,2 50808  53.2142 240.2284 0001416  95.5400 264.5754 15.08839148144321,6917.883,95.438,540.728,538.768,0.0
50808.0,STARLINK-3355,PAYLOAD,2024-08-08 07:58:17,15.08847926,0.0001396,53.2146,235.4701,94.1618,265.9534,0.00034852,5.264e-05,0.0,0 STARLINK-3355,1 50808U 22001F   24221.33214352  .00005264  00000-0  34852-3 0  9992,2 50808  53.2146 235.4701 0001396  94.1618 265.9534 15.08847926143231,6917.856,95.437,540.687,538.755,0.0
50808.0,STARLINK-3355,PAYLOAD,2024-08-09 04:38:17,15.08841161,0.000148,53.2147,231.6039,111.2557,248.8593,2.5437e-05,1.17e-06,0.0,0 STARLINK-3355,1 50808U 22001F   24222.19326223  .00000117  00000-0  25437-4 0  9990,2 50808  53.2147 231.6039 0001480 111.2557 248.8593 15.08841161144614,6917.877,95.437,540.766,538.718,0.0
50808.0,STARLINK-3355,PAYLOAD,2024-08-09 07:49:04,15.08840145,0.0001425,53.2148,231.011,107.4287,252.6861,3.4429e-05,2.6e-06,0.0,0 STARLINK-3355,1 50808U 22001F   24222.32574412  .00000260  00000-0  34429-4 0  9990,2 50808  53.2148 231.0110 0001425 107.4287 252.6861 15.08840145143380,6917.88,95.438,540.731,538.759,0.0
50808.0,STARLINK-3355,PAYLOAD,2024-08-09 17:21:22,15.08846116,0.0001381,53.2148,229.226,104.6375,255.477,0.00010826,1.436e-05,0.0,0 STARLINK-3355,1 50808U 22001F   24222.72318015  .00001436  00000-0  10826-3 0  9999,2 50808  53.2148 229.2260 0001381 104.6375 255.4770 15.08846116143444,6917.862,95.437,540.682,538.771,0.0
50808.0,STARLINK-3355,PAYLOAD,2024-08-10 04:29:05,15.08831187,0.0001516,53.2159,227.1454,109.986,250.1295,-9.085e-05,-1.733e-05,0.0,0 STARLINK-3355,1 50808U 22001F   24223.18686786 -.00001733  00000-0 -90850-4 0  9991,2 50808  53.2159 227.1454 0001516 109.9860 250.1295 15.08831187144767,6917.907,95.438,540.821,538.724,0.0
50808.0,STARLINK-3355,PAYLOAD,2024-08-10 10:50:38,15.08836949,0.0001511,53.2163,225.955,96.1401,263.9764,2.5686e-05,1.21e-06,0.0,0 STARLINK-3355,1 50808U 22001F   24223.45182975  .00000121  00000-0  25686-4 0  9995,2 50808  53.2163 225.9550 0001511  96.1401 263.9764 15.08836949143558,6917.89,95.438,540.8,538.709,0.0
50808.0,STARLINK-3355,PAYLOAD,2024-08-11 07:30:38,15.08844694,0.0001506,53.2166,222.0893,96.1449,263.9715,0.00017167,2.446e-05,0.0,0 STARLINK-3355,1 50808U 22001F   24224.31294182  .00002446  00000-0  17167-3 0  9991,2 50808  53.2166 222.0893 0001506  96.1449 263.9715 15.08844694144930,6917.866,95.437,540.773,538.689,0.0
50808.0,STARLINK-3355,PAYLOAD,2024-08-11 17:02:56,15.08859627,0.0001489,53.2167,220.3037,78.7683,281.3477,0.00018175,2.607e-05,0.0,0 STARLINK-3355,1 50808U 22001F   24224.71037125  .00002607  00000-0  18175-3 0  9996,2 50808  53.2167 220.3037 0001489  78.7683 281.3477 15.08859627144995,6917.82,95.436,540.715,538.655,0.0
50808.0,STARLINK-3355,PAYLOAD,2024-08-12 04:10:39,15.08832485,0.0001611,53.2156,218.2224,82.0804,278.0371,2.835e-05,1.63e-06,0.0,0 STARLINK-3355,1 50808U 22001F   24225.17406914  .00000163  00000-0  28350-4 0  9995,2 50808  53.2156 218.2224 0001611  82.0804 278.0371 15.08832485145065,6917.903,95.438,540.883,538.654,0.0
50808.0,STARLINK-3355,PAYLOAD,2024-08-12 07:21:25,15.08840258,0.0001432,53.2147,217.6274,82.6216,277.4938,7.8279e-05,9.58e-06,0.0,0 STARLINK-3355,1 50808U 22001F   24225.30654412  .00000958  00000-0  78279-4 0  9995,2 50808  53.2147 217.6274 0001432  82.6216 277.4938 15.08840258145088,6917.88,95.438,540.735,538.754,0.0
50808.0,STARLINK-3355,PAYLOAD,2024-08-12 16:53:43,15.08864154,0.0001432,53.2149,215.8453,83.2132,276.9023,0.00053471,8.238e-05,0.0,0 STARLINK-3355,1 50808U 22001F   24225.70397527  .00008238  00000-0  53471-3 0  9995,2 50808  53.2149 215.8453 0001432  83.2132 276.9023 15.08864154145140,6917.807,95.436,540.662,538.681,0.0
50808.0,STARLINK-3355,PAYLOAD,2024-08-13 05:36:48,15.08844533,0.0001465,53.2159,213.4624,96.2041,263.9118,0.00017996,2.578e-05,0.0,0 STARLINK-3355,1 50808U 22001F   24226.23389871  .00002578  00000-0  17996-3 0  9990,2 50808  53.2159 213.4624 0001465  96.2041 263.9118 15.08844533145223,6917.867,95.437,540.745,538.718,0.0
50808.0,STARLINK-3355,PAYLOAD,2024-08-13 16:44:30,15.08850192,0.0001543,53.2152,211.3801,102.1805,257.936,0.00037232,5.644e-05,0.0,0 STARLINK-3355,1 50808U 22001F   24226.69757647  .00005644  00000-0  37232-3 0  9992,2 50808  53.2152 211.3801 0001543 102.1805 257.9360 15.08850192144041,6917.849,95.437,540.782,538.647,0.0
50808.0,STARLINK-3355,PAYLOAD,2024-08-14 05:27:36,15.08830694,0.0001293,53.2145,209.0057,79.7215,280.3923,0.00025278,3.736e-05,0.0,0 STARLINK-3355,1 50808U 22001F   24227.22750279  .00003736  00000-0  25278-3 0  9993,2 50808  53.2145 209.0057 0001293  79.7215 280.3923 15.08830694145373,6917.909,95.438,540.668,538.879,0.0
50808.0,STARLINK-3355,PAYLOAD,2024-08-14 08:38:22,15.08829958,0.0001345,53.2149,208.4108,85.7892,274.3254,0.00046928,7.187e-05,0.0,0 STARLINK-3355,1 50808U 22001F   24227.35998532  .00007187  00000-0  46928-3 0  9992,2 50808  53.2149 208.4108 0001345  85.7892 274.3254 15.08829958144148,6917.911,95.438,540.707,538.846,0.0
50808.0,STARLINK-3355,PAYLOAD,2024-08-15 05:18:24,15.08837472,0.0001308,53.2147,204.5444,82.7586,277.3555,0.00067184,0.0001042,0.0,0 STARLINK-3355,1 50808U 22001F   24228.22111254  .00010420  00000-0  67184-3 0  9998,2 50808  53.2147 204.5444 0001308  82.7586 277.3555 15.08837472144273,6917.888,95.438,540.658,538.848,0.0
50808.0,STARLINK-3355,PAYLOAD,2024-08-16 05:09:11,15.08844595,0.0001286,53.2143,200.0832,84.3486,275.7652,0.0003825,5.806e-05,0.0,0 STARLINK-3355,1 50808U 22001F   24229.21471266  .00005806  00000-0  38250-3 0  9994,2 50808  53.2143 200.0832 0001286  84.3486 275.7652 15.08844595145672,6917.866,95.437,540.621,538.842,0.0
50808.0,STARLINK-3355,PAYLOAD,2024-08-17 03:24:35,15.08836536,0.0001316,53.2144,195.92,84.2894,275.8248,5.1127e-05,5.26e-06,0.0,0 STARLINK-3355,1 50808U 22001F   24230.14207585  .00000526  00000-0  51127-4 0  9992,2 50808  53.2144 195.9200 0001316  84.2894 275.8248 15.08836536145814,6917.891,95.438,540.666,538.846,0.0
50808.0,STARLINK-3355,PAYLOAD,2024-08-17 04:59:58,15.08836295,0.0001333,53.2146,195.6228,84.6145,275.4999,4.0309e-05,3.54e-06,0.0,0 STARLINK-3355,1 50808U 22001F   24230.20831596  .00000354  00000-0  40309-4 0  9993,2 50808  53.2146 195.6228 0001333  84.6145 275.4999 15.08836295144578,6917.892,95.438,540.679,538.835,0.0
50808.0,STARLINK-3355,PAYLOAD,2024-08-18 04:50:45,15.08847287,0.000142,53.2152,191.1651,97.7603,262.3551,0.00022052,3.224e-05,0.0,0 STARLINK-3355,1 50808U 22001F   24231.20191236  .00003224  00000-0  22052-3 0  9997,2 50808  53.2152 191.1651 0001420  97.7603 262.3551 15.08847287145974,6917.858,95.437,540.705,538.741,0.0
50808.0,STARLINK-3355,PAYLOAD,2024-08-18 06:26:08,15.08849787,0.0001391,53.215,190.8658,89.1482,270.9669,0.0002474,3.653e-05,0.0,0 STARLINK-3355,1 50808U 22001F   24231.26815121  .00003653  00000-0  24740-3 0  9991,2 50808  53.2150 190.8658 0001391  89.1482 270.9669 15.08849787144737,6917.85,95.437,540.678,538.753,0.0
50808.0,STARLINK-3355,PAYLOAD,2024-08-19 04:41:32,15.08837111,0.0001513,53.2158,186.6984,79.5521,280.5641,6.2602e-05,7.08e-06,0.0,0 STARLINK-3355,1 50808U 22001F   24232.19551772  .00000708  00000-0  62602-4 0  9991,2 50808  53.2158 186.6984 0001513  79.5521 280.5641 15.08837111146123,6917.889,95.438,540.801,538.708,0.0
50808.0,STARLINK-3355,PAYLOAD,2024-08-20 04:32:19,15.08848327,0.0001443,53.2164,182.2436,85.8693,274.2464,6.2964e-05,7.14e-06,0.0,0 STARLINK-3355,1 50808U 22001F   24233.18911325  .00000714  00000-0  62964-4 0  9993,2 50808  53.2164 182.2436 0001443  85.8693 274.2464 15.08848327146276,6917.855,95.437,540.718,538.722,0.0
50808.0,STARLINK-3355,PAYLOAD,2024-08-20 06:07:42,15.08850794,0.0001403,53.2162,181.9444,87.4952,272.6201,7.4792e-05,9.03e-06,0.0,0 STARLINK-3355,1 50808U 22001F   24233.25535051  .00000903  00000-0  74792-4 0  9991,2 50808  53.2162 181.9444 0001403  87.4952 272.6201 15.08850794145036,6917.847,95.437,540.683,538.742,0.0
50808.0,STARLINK-3355,PAYLOAD,2024-08-21 02:47:43,15.08839803,0.0001401,53.2162,178.0778,89.6459,270.4694,0.00010823,1.435e-05,0.0,0 STARLINK-3355,1 50808U 22001F   24234.11647513  .00001435  00000-0  10823-3 0  9999,2 50808  53.2162 178.0778 0001401  89.6459 270.4694 15.08839803146410,6917.881,95.438,540.715,538.777,0.0
50808.0,STARLINK-3355,PAYLOAD,2024-08-21 05:58:29,15.08841757,0.0001399,53.2161,177.4825,91.0926,269.0227,0.00012278,1.667e-05,0.0,0 STARLINK-3355,1 50808U 22001F   24234.24895384  .00001667  00000-0  12278-3 0  9997,2 50808  53.2161 177.4825 0001399  91.0926 269.0227 15.08841757145187,6917.875,95.437,540.708,538.772,0.0
